{
 "type": "FeatureCollection",
 "features": [
  {
   "type": "Feature",
   "properties": {
    "label": "MP_NWCorner",
    "parcel": "Main Parcel"
   },
   "geometry": {
    "type": "Point",
    "coordinates": [
     -73.83520117,
     43.36114129
    ]
   }
  },
  {
   "type": "Feature",
   "properties": {
    "label": "MP_N1",
    "parcel": "Main Parcel"
   },
   "geometry": {
    "type": "Point",
    "coordinates": [
     -73.83486626,
     43.36119384
    ]
   }
  },
  {
   "type": "Feature",
   "properties": {
    "label": "MP_N2",
    "parcel": "Main Parcel"
   },
   "geometry": {
    "type": "Point",
    "coordinates": [
     -73.83398061,
     43.3612939
    ]
   }
  },
  {
   "type": "Feature",
   "properties": {
    "label": "MP_N3",
    "parcel": "Main Parcel"
   },
   "geometry": {
    "type": "Point",
    "coordinates": [
     -73.83365968,
     43.36129601
    ]
   }
  },
  {
   "type": "Feature",
   "properties": {
    "label": "MP_NECorner",
    "parcel": "Main Parcel"
   },
   "geometry": {
    "type": "Point",
    "coordinates": [
     -73.83349609,
     43.36132768
    ]
   }
  },
  {
   "type": "Feature",
   "properties": {
    "label": "MP_SECorner",
    "parcel": "Main Parcel"
   },
   "geometry": {
    "type": "Point",
    "coordinates": [
     -73.83325533,
     43.35807918
    ]
   }
  },
  {
   "type": "Feature",
   "properties": {
    "label": "MP_SWCorner",
    "parcel": "Main Parcel"
   },
   "geometry": {
    "type": "Point",
    "coordinates": [
     -73.83588927,
     43.35783214
    ]
   }
  },
  {
   "type": "Feature",
   "properties": {
    "label": "MP_W1",
    "parcel": "Main Parcel"
   },
   "geometry": {
    "type": "Point",
    "coordinates": [
     -73.83616101,
     43.35836566
    ]
   }
  },
  {
   "type": "Feature",
   "properties": {
    "label": "MP_WCorner",
    "parcel": "Main Parcel"
   },
   "geometry": {
    "type": "Point",
    "coordinates": [
     -73.83627008,
     43.3588178
    ]
   }
  },
  {
   "type": "Feature",
   "properties": {
    "label": "MP_W2",
    "parcel": "Main Parcel"
   },
   "geometry": {
    "type": "Point",
    "coordinates": [
     -73.83613834,
     43.35908147
    ]
   }
  },
  {
   "type": "Feature",
   "properties": {
    "label": "MP_W3",
    "parcel": "Main Parcel"
   },
   "geometry": {
    "type": "Point",
    "coordinates": [
     -73.83622666,
     43.35910496
    ]
   }
  },
  {
   "type": "Feature",
   "properties": {
    "label": "SL_NECorner",
    "parcel": "Sliver"
   },
   "geometry": {
    "type": "Point",
    "coordinates": [
     -73.83562233,
     43.36108584
    ]
   }
  },
  {
   "type": "Feature",
   "properties": {
    "label": "SL_E1",
    "parcel": "Sliver"
   },
   "geometry": {
    "type": "Point",
    "coordinates": [
     -73.83609774,
     43.36016401
    ]
   }
  },
  {
   "type": "Feature",
   "properties": {
    "label": "SL_E2",
    "parcel": "Sliver"
   },
   "geometry": {
    "type": "Point",
    "coordinates": [
     -73.83618607,
     43.3601875
    ]
   }
  },
  {
   "type": "Feature",
   "properties": {
    "label": "SL_SCorner",
    "parcel": "Sliver"
   },
   "geometry": {
    "type": "Point",
    "coordinates": [
     -73.8363539,
     43.35984806
    ]
   }
  },
  {
   "type": "Feature",
   "properties": {
    "label": "SL_NWCorner",
    "parcel": "Sliver"
   },
   "geometry": {
    "type": "Point",
    "coordinates": [
     -73.83617901,
     43.36104297
    ]
   }
  }
 ]
}
