{
  "type": "FeatureCollection",
  "properties": {
    "title": "Dirt roads"
  },
  "features": [
    {
      "type": "Feature",
      "properties": {
        "id": "mountain-drive",
        "name": "Mountain Drive",
        "type": "dirt road",
        "status": "work in progress",
        "provisional": true,
        "recorded_on": "2026-08-04",
        "source_files": [
          "New_rd_down.gpx",
          "New_Road_up.gpx"
        ],
            "processing": "Equal-pass median centerline in 6 m distance bands; lightly smoothed and simplified. Combined extent retained. A vertex was inserted at the Pavilion Side Trail junction, with that trail endpoint snapped 1.5 m to the road.",
        "length_m": 199.3,
        "note": "New/continued dirt road following an older route. Replace when better GPS coverage is available."
      },
      "geometry": {
        "type": "LineString",
        "coordinates": [
          [
            -73.8359205,
            43.3592015
          ],
          [
            -73.8359193,
            43.3593367
          ],
          [
            -73.8358657,
            43.3593707
          ],
          [
            -73.8356051,
            43.3594245
          ],
          [
            -73.8354957,
            43.3594944
          ],
          [
            -73.8354833,
            43.3595137
          ],
          [
            -73.8354316,
            43.3595946
          ],
          [
            -73.8351067,
            43.3596738
          ],
          [
            -73.8349879,
            43.3597511
          ],
          [
            -73.8348198,
            43.3599924
          ],
          [
            -73.8347548,
            43.3602226
          ],
          [
            -73.83456,
            43.360511
          ]
        ]
      }
    }
  ]
}
