{
  "type": "FeatureCollection",
  "properties": {
    "title": "Walking trails"
  },
  "features": [
    {
      "type": "Feature",
      "properties": {
        "id": "barbershop-trail",
        "name": "Barbershop Trail",
        "type": "walking trail",
        "status": "provisional",
        "note": "Dead-end spur from the shared clearing; its far end is intentionally free.",
        "source_files": [
          "barbershop-trail.gpx"
        ],
        "recorded_on": "2026-08-05",
        "processing": "Arc-length median centerline from 4 equally weighted passes; directions normalized; 3 m stations. Its start endpoint was extended 3.8 m to the shared Main Loop Clearing centroid.",
        "length_m": 56.2,
        "length_ft": 174,
        "elevation_gain_ft": 21
      },
      "geometry": {
        "type": "LineString",
        "coordinates": [
          [
            -73.8342293,
            43.3591683
          ],
          [
            -73.8341994,
            43.3591842
          ],
          [
            -73.8341191,
            43.359253
          ],
          [
            -73.8339864,
            43.3594112
          ],
          [
            -73.8338677,
            43.3594533
          ],
          [
            -73.8338439,
            43.3595243
          ],
          [
            -73.8338232,
            43.3595356
          ],
          [
            -73.8338405,
            43.3595281
          ]
        ]
      }
    },
    {
      "type": "Feature",
      "properties": {
        "id": "field-connector",
        "name": "Field Connector",
        "type": "walking trail",
        "status": "provisional",
        "note": "Infrastructure connector between Main Loop Ext and Front Field Zone; placeholder name.",
        "source_files": [
          "connector.gpx"
        ],
        "recorded_on": "2026-08-05",
        "processing": "Arc-length median centerline from 4 equally weighted passes; directions normalized; 2.5 m stations. Join `field-connector-main-loop-ext` adjusted its endpoint to the declared connection. Join `field-connector-front-field-zone` adjusted its endpoint to the declared connection.",
        "length_m": 29.2,
        "length_ft": 95,
        "elevation_gain_ft": 10
      },
      "geometry": {
        "type": "LineString",
        "coordinates": [
          [
            -73.8347378,
            43.3588363
          ],
          [
            -73.8346635,
            43.3588187
          ],
          [
            -73.8345973,
            43.3588236
          ],
          [
            -73.8345222,
            43.3588447
          ],
          [
            -73.8343892,
            43.3588265
          ]
        ]
      }
    },
    {
      "type": "Feature",
      "properties": {
        "id": "garden-cut-through",
        "name": "Garden Cut Through",
        "type": "walking trail",
        "status": "provisional",
        "recorded_on": "2026-08-04",
        "source_files": [
          "Garden_cut_through.gpx"
        ],
        "processing": "Repeated passes consolidated with a median centerline in 3 m distance bands. After the owner refined the Front Field Zone, the field end was trimmed at the first west-to-east crossing of the revised zone boundary. Join `garden-cut-through-main-loop` moved/extended its endpoint 5.0 m.",
        "length_m": 26.0
      },
      "geometry": {
        "type": "LineString",
        "coordinates": [
          [
            -73.8350683,
            43.3590097
          ],
          [
            -73.8351049,
            43.3590796
          ],
          [
            -73.8351636,
            43.359115
          ],
          [
            -73.8352395,
            43.359134
          ],
          [
            -73.8352984,
            43.3591487
          ]
        ]
      }
    },
    {
      "type": "Feature",
      "properties": {
        "id": "main-loop",
        "name": "Main Loop",
        "type": "walking trail",
        "status": "provisional",
        "note": "New main trail segment; owner confirmation and naming remain provisional.",
        "source_files": [
          "main-loop.gpx"
        ],
        "recorded_on": "2026-08-05",
        "processing": "Single-pass order-preserving smoothing and RDP simplification. Its start endpoint was extended 31.6 m to the shared Main Loop Clearing centroid. A matching vertex was inserted for join `garden-cut-through-main-loop`. A matching vertex was inserted for join `pavilion-side-trail-main-loop`. Join `main-loop-driveway` adjusted its endpoint to the declared connection.",
        "length_m": 149.4,
        "length_ft": 529,
        "elevation_gain_ft": 51
      },
      "geometry": {
        "type": "LineString",
        "coordinates": [
          [
            -73.8342293,
            43.3591683
          ],
          [
            -73.8343373,
            43.3591487
          ],
          [
            -73.8343522,
            43.3592387
          ],
          [
            -73.8348165,
            43.3593575
          ],
          [
            -73.8349688,
            43.3593782
          ],
          [
            -73.8350727,
            43.3593677
          ],
          [
            -73.8351407,
            43.3593355
          ],
          [
            -73.8351943,
            43.3592848
          ],
          [
            -73.8352243,
            43.3592239
          ],
          [
            -73.8352333,
            43.3592055
          ],
          [
            -73.8351972,
            43.3591825
          ],
          [
            -73.8352412,
            43.3591855
          ],
          [
            -73.8352958,
            43.3591642
          ],
          [
            -73.8352984,
            43.3591487
          ],
          [
            -73.835331,
            43.358956
          ],
          [
            -73.8353483,
            43.3589295
          ],
          [
            -73.835379,
            43.358932
          ],
          [
            -73.8354391,
            43.3589369
          ]
        ]
      }
    },
    {
      "type": "Feature",
      "properties": {
        "id": "main-loop-ext",
        "name": "Main Loop Ext",
        "type": "walking trail",
        "status": "provisional",
        "note": "Out-and-back trail centerline consolidated from the two recorded directions; placeholder name pending owner review.",
        "source_files": [
          "main-loop-ext.gpx"
        ],
        "recorded_on": "2026-08-05",
        "processing": "Arc-length median centerline from 2 equally weighted passes; directions normalized; 3 m stations. Its start endpoint was extended 5.1 m to the shared Main Loop Clearing centroid. A matching vertex was inserted for join `field-connector-main-loop-ext`.",
        "length_m": 158.2,
        "length_ft": 502,
        "elevation_gain_ft": 68
      },
      "geometry": {
        "type": "LineString",
        "coordinates": [
          [
            -73.8342293,
            43.3591683
          ],
          [
            -73.8342239,
            43.3591505
          ],
          [
            -73.8342269,
            43.3590832
          ],
          [
            -73.8342585,
            43.3590226
          ],
          [
            -73.8342669,
            43.3590156
          ],
          [
            -73.8342852,
            43.3590263
          ],
          [
            -73.8343816,
            43.3588895
          ],
          [
            -73.8343892,
            43.3588265
          ],
          [
            -73.8343954,
            43.3587757
          ],
          [
            -73.8343418,
            43.3587382
          ],
          [
            -73.8342115,
            43.3586935
          ],
          [
            -73.8341402,
            43.3586388
          ],
          [
            -73.8340972,
            43.3585694
          ],
          [
            -73.8339385,
            43.3583893
          ],
          [
            -73.8337864,
            43.3582948
          ],
          [
            -73.8337078,
            43.3581138
          ],
          [
            -73.8336615,
            43.3580855
          ],
          [
            -73.8335832,
            43.3580637
          ],
          [
            -73.833583,
            43.358077
          ]
        ]
      }
    },
    {
      "type": "Feature",
      "properties": {
        "id": "pavilion-side-trail",
        "name": "Pavilion Side Trail",
        "type": "walking trail",
        "status": "provisional",
        "recorded_on": "2026-08-04",
        "source_files": [
          "Pavilion_side_trail.gpx"
        ],
        "processing": "Repeated passes consolidated with a median centerline in 3 m distance bands. South endpoint placed 5 m northeast of the Pavilion point to separate the building and intersection symbols; north endpoint snapped 1.5 m to Mountain Drive. Join `pavilion-side-trail-main-loop` moved/extended its endpoint 11.6 m.",
        "length_m": 42.6
      },
      "geometry": {
        "type": "LineString",
        "coordinates": [
          [
            -73.8352243,
            43.3592239
          ],
          [
            -73.8353589,
            43.359259
          ],
          [
            -73.8353505,
            43.3593315
          ],
          [
            -73.8354239,
            43.3594199
          ],
          [
            -73.8354833,
            43.3595137
          ]
        ]
      }
    }
  ]
}
