{
  "type": "FeatureCollection",
  "properties": {
    "title": "Confirmed feature intersections"
  },
  "features": [
    {
      "type": "Feature",
      "properties": {
        "id": "pavilion-pavilion-side-trail",
        "name": "Pavilion / Pavilion Side Trail",
        "type": "confirmed intersection",
        "features": [
          "pavilion",
          "pavilion-side-trail"
        ],
        "status": "confirmed in person; mapped approximately",
        "map_offset_from_building_m": 5.0,
        "note": "Marker is offset from the Pavilion so both remain visible."
      },
      "geometry": {
        "type": "Point",
        "coordinates": [
          -73.8353589,
          43.359259
        ]
      }
    },
    {
      "type": "Feature",
      "properties": {
        "id": "garden-cut-through-front-field-zone",
        "name": "Garden Cut Through / Front Field Zone",
        "type": "confirmed intersection",
        "features": [
          "garden-cut-through",
          "front-field-zone"
        ],
        "status": "confirmed in person; mapped approximately"
      },
      "geometry": {
        "type": "Point",
        "coordinates": [
          -73.8350683,
          43.3590097
        ]
      }
    },
    {
      "type": "Feature",
      "properties": {
        "id": "mountain-drive-pavilion-side-trail",
        "name": "Mountain Drive / Pavilion Side Trail",
        "type": "confirmed intersection",
        "features": [
          "mountain-drive",
          "pavilion-side-trail"
        ],
        "status": "confirmed in person; mapped approximately",
        "snap_adjustment_m": 1.5
      },
      "geometry": {
        "type": "Point",
        "coordinates": [
          -73.8354833,
          43.3595137
        ]
      }
    },
    {
      "type": "Feature",
      "properties": {
        "id": "garden-cut-through-open-end",
        "name": "Garden Cut Through / Main Loop",
        "type": "confirmed intersection",
        "features": [
          "garden-cut-through",
          "main-loop"
        ],
        "status": "provisional; derived from declared join",
        "recorded_on": "2026-08-05"
      },
      "geometry": {
        "type": "Point",
        "coordinates": [
          -73.8352984,
          43.3591487
        ]
      }
    },
    {
      "type": "Feature",
      "properties": {
        "id": "field-connector-front-field-zone",
        "name": "Field Connector / Front Field Zone",
        "type": "confirmed intersection",
        "features": [
          "field-connector",
          "front-field-zone"
        ],
        "status": "provisional; derived from declared join",
        "recorded_on": "2026-08-05"
      },
      "geometry": {
        "type": "Point",
        "coordinates": [
          -73.8347378,
          43.3588363
        ]
      }
    },
    {
      "type": "Feature",
      "properties": {
        "id": "field-connector-main-loop-ext",
        "name": "Field Connector / Main Loop Ext",
        "type": "confirmed intersection",
        "features": [
          "field-connector",
          "main-loop-ext"
        ],
        "status": "provisional; derived from declared join",
        "recorded_on": "2026-08-05"
      },
      "geometry": {
        "type": "Point",
        "coordinates": [
          -73.8343892,
          43.3588265
        ]
      }
    },
    {
      "type": "Feature",
      "properties": {
        "id": "main-loop-clearing",
        "name": "Main Loop Clearing",
        "type": "confirmed intersection",
        "features": [
          "barbershop-trail",
          "main-loop",
          "main-loop-ext"
        ],
        "status": "provisional; derived from declared join",
        "recorded_on": "2026-08-05",
        "note": "Main Loop, Main Loop Ext, and Barbershop Trail meet here."
      },
      "geometry": {
        "type": "Point",
        "coordinates": [
          -73.8342293,
          43.3591683
        ]
      }
    },
    {
      "type": "Feature",
      "properties": {
        "id": "main-loop-driveway",
        "name": "Main Loop / Driveway",
        "type": "confirmed intersection",
        "features": [
          "main-loop",
          "driveway"
        ],
        "status": "provisional; derived from declared join",
        "recorded_on": "2026-08-31"
      },
      "geometry": {
        "type": "Point",
        "coordinates": [
          -73.8354327,
          43.35894
        ]
      }
    },
    {
      "type": "Feature",
      "properties": {
        "id": "main-loop-pavilion-side-trail",
        "name": "Main Loop / Pavilion Side Trail",
        "type": "confirmed intersection",
        "features": [
          "pavilion-side-trail",
          "main-loop"
        ],
        "status": "provisional; derived from declared join",
        "recorded_on": "2026-08-05"
      },
      "geometry": {
        "type": "Point",
        "coordinates": [
          -73.8352243,
          43.3592239
        ]
      }
    },
    {
      "type": "Feature",
      "properties": {
        "id": "mountain-drive-driveway",
        "name": "Mountain Drive / Driveway",
        "type": "confirmed intersection",
        "features": [
          "mountain-drive",
          "driveway"
        ],
        "status": "provisional; derived from declared join",
        "recorded_on": "2026-08-31"
      },
      "geometry": {
        "type": "Point",
        "coordinates": [
          -73.8359401,
          43.3591414
        ]
      }
    },
    {
      "type": "Feature",
      "properties": {
        "id": "beeline-main-loop-ext",
        "name": "Beeline / Main Loop Ext",
        "type": "trail intersection",
        "features": [
          "line",
          "main-loop-ext"
        ],
        "status": "provisional",
        "recorded_on": "2026-09-18"
      },
      "geometry": {
        "type": "Point",
        "coordinates": [
          -73.8339724,
          43.3584277
        ]
      }
    },
    {
      "type": "Feature",
      "properties": {
        "id": "back-cut-through-main-loop-ext",
        "name": "Back Cut Through / Main Loop Ext",
        "type": "confirmed intersection",
        "features": [
          "back-cut-through",
          "main-loop-ext"
        ],
        "status": "provisional; derived from declared join",
        "recorded_on": "2026-09-18"
      },
      "geometry": {
        "type": "Point",
        "coordinates": [
          -73.8342787,
          43.3587166
        ]
      }
    }
  ]
}
