{
  "type": "FeatureCollection",
  "properties": {
    "title": "Confirmed feature intersections"
  },
  "features": [
    {
      "type": "Feature",
      "properties": {
        "id": "pavilion-pavilion-side-trail",
        "name": "Pavilion / Pavilion Side Trail",
        "type": "confirmed intersection",
        "features": [
          "pavilion",
          "pavilion-side-trail"
        ],
        "status": "confirmed in person; mapped approximately",
        "map_offset_from_building_m": 5.0,
        "note": "Placed 5 m northeast of the Pavilion point along the trail so the building and intersection symbols remain distinct."
      },
      "geometry": {
        "type": "Point",
        "coordinates": [
          -73.8353589,
          43.359259
        ]
      }
    },
    {
      "type": "Feature",
      "properties": {
        "id": "garden-cut-through-front-field-zone",
        "name": "Garden Cut Through / Front Field Zone",
        "type": "confirmed intersection",
        "features": [
          "garden-cut-through",
          "front-field-zone"
        ],
        "status": "confirmed in person; mapped approximately",
        "note": "Trail endpoint and the owner-refined zone boundary share the first west-to-east crossing coordinate exactly; the trail segment beyond this point was removed."
      },
      "geometry": {
        "type": "Point",
        "coordinates": [
          -73.8350683,
          43.3590097
        ]
      }
    },
    {
      "type": "Feature",
      "properties": {
        "id": "mountain-drive-pavilion-side-trail",
        "name": "Mountain Drive / Pavilion Side Trail",
        "type": "confirmed intersection",
        "features": [
          "mountain-drive",
          "pavilion-side-trail"
        ],
        "status": "confirmed in person; mapped approximately",
        "snap_adjustment_m": 1.5,
        "note": "The trail endpoint and an inserted Mountain Drive vertex share this exact coordinate."
      },
      "geometry": {
        "type": "Point",
        "coordinates": [
          -73.8354833,
          43.3595137
        ]
      }
    },
    {
      "type": "Feature",
      "properties": {
        "id": "mountain-drive-southwest-end",
        "name": "Mountain Drive Southwest Connection",
        "type": "open connection point",
        "features": [
          "mountain-drive"
        ],
        "status": "adjoining feature not yet mapped",
        "note": "Known connection point at the southwest end of Mountain Drive; the intersecting feature will be added later."
      },
      "geometry": {
        "type": "Point",
        "coordinates": [
          -73.8359205,
          43.3592015
        ]
      }
    },
    {
      "type": "Feature",
      "properties": {
        "id": "garden-cut-through-open-end",
        "name": "Garden Cut Through / Main Loop",
        "type": "confirmed intersection",
        "features": [
          "garden-cut-through",
          "main-loop"
        ],
        "status": "provisional; derived from declared join",
        "recorded_on": "2026-08-05",
        "note": "The former open connection point now terminates cleanly on Main Loop. Declared extend join moved/extended the end side by 5.0 m; source and target now share [-73.8352984, 43.3591487]."
      },
      "geometry": {
        "type": "Point",
        "coordinates": [
          -73.8352984,
          43.3591487
        ]
      }
    },
    {
      "type": "Feature",
      "properties": {
        "id": "field-connector-front-field-zone",
        "name": "Field Connector / Front Field Zone",
        "type": "confirmed intersection",
        "features": [
          "field-connector",
          "front-field-zone"
        ],
        "status": "provisional; derived from declared join",
        "recorded_on": "2026-08-05",
        "note": "Connector overshoot was trimmed at the existing zone edge without an additional inset. Declared trim join moved/extended the start side by 2.9 m; source and target now share [-73.8347378, 43.3588363]."
      },
      "geometry": {
        "type": "Point",
        "coordinates": [
          -73.8347378,
          43.3588363
        ]
      }
    },
    {
      "type": "Feature",
      "properties": {
        "id": "field-connector-main-loop-ext",
        "name": "Field Connector / Main Loop Ext",
        "type": "confirmed intersection",
        "features": [
          "field-connector",
          "main-loop-ext"
        ],
        "status": "provisional; derived from declared join",
        "recorded_on": "2026-08-05",
        "note": "Connector endpoint snapped to Main Loop Ext. Declared snap join moved/extended the end side by 1.4 m; source and target now share [-73.8344109, 43.3588266]."
      },
      "geometry": {
        "type": "Point",
        "coordinates": [
          -73.8344109,
          43.3588266
        ]
      }
    },
    {
      "type": "Feature",
      "properties": {
        "id": "main-loop-clearing",
        "name": "Main Loop Clearing",
        "type": "confirmed intersection",
        "features": [
          "barbershop-trail",
          "main-loop",
          "main-loop-ext"
        ],
        "status": "provisional; derived from declared join",
        "recorded_on": "2026-08-05",
        "note": "Main Loop, both ends of Main Loop Ext, and Barbershop Trail share one owner-confirmed clearing node. Node centroid [-73.8342293, 43.3591683]; endpoint movements: main-loop-ext start 5.2 m, main-loop-ext end 1.4 m, barbershop-trail start 3.8 m, main-loop start 31.6 m."
      },
      "geometry": {
        "type": "Point",
        "coordinates": [
          -73.8342293,
          43.3591683
        ]
      }
    },
    {
      "type": "Feature",
      "properties": {
        "id": "main-loop-driveway",
        "name": "Main Loop / Driveway",
        "type": "confirmed intersection",
        "features": [
          "main-loop",
          "driveway"
        ],
        "status": "provisional; derived from declared join",
        "recorded_on": "2026-08-05",
        "note": "Main Loop was smoothly extended to the unchanged driveway centerline. Declared extend join moved/extended the end side by 4.9 m; source and target now share [-73.8354391, 43.3589369]."
      },
      "geometry": {
        "type": "Point",
        "coordinates": [
          -73.8354391,
          43.3589369
        ]
      }
    },
    {
      "type": "Feature",
      "properties": {
        "id": "main-loop-pavilion-side-trail",
        "name": "Main Loop / Pavilion Side Trail",
        "type": "confirmed intersection",
        "features": [
          "pavilion-side-trail",
          "main-loop"
        ],
        "status": "provisional; derived from declared join",
        "recorded_on": "2026-08-05",
        "note": "Pavilion Side Trail was extended beyond its existing Pavilion-offset vertex to Main Loop. Declared extend join moved/extended the start side by 11.6 m; source and target now share [-73.8352243, 43.3592239]. Resulting separation from pavilion: 11.4 m."
      },
      "geometry": {
        "type": "Point",
        "coordinates": [
          -73.8352243,
          43.3592239
        ]
      }
    }
  ]
}
