{
  "type": "FeatureCollection",
  "properties": {
    "title": "Zones"
  },
  "features": [
    {
      "type": "Feature",
      "properties": {
        "id": "front-field-zone",
        "name": "Front Field Zone",
        "type": "zone",
        "status": "rough / provisional",
        "recorded_on": "2026-08-04",
        "source_files": [
          "Front_field_zone.gpx"
        ],
            "processing": "Single walked perimeter; small start/finish crossings untangled and low-area GPS jitter removed. The owner manually refined the field boundary on 2026-08-04; an exact vertex was then inserted on the unchanged boundary edge at the first west-to-east Garden Cut Through crossing.",
        "note": "Rough test zone; not a surveyed or exact boundary."
      },
      "geometry": {
        "type": "Polygon",
        "coordinates": [
          [
             [
              -73.8350349,
              43.3591096
            ],
            [
              -73.8350137,
              43.3591228
            ],
            [
              -73.834979,
              43.3591184
            ],
            [
              -73.8349085,
              43.3590709
            ],
            [
              -73.834893,
              43.358986
            ],
            [
              -73.8348078,
              43.358942
            ],
            [
              -73.8347606,
              43.358932
            ],
            [
              -73.8347254,
              43.3589195
            ],
            [
              -73.8346945,
              43.3589052
            ],
            [
              -73.8346912,
              43.358879
            ],
            [
              -73.8347219,
              43.3588452
            ],
            [
              -73.834862,
              43.358767
            ],
            [
              -73.8349117,
              43.3587613
            ],
            [
              -73.8349591,
              43.3587679
            ],
            [
              -73.8350382,
              43.3587785
            ],
            [
              -73.83515,
              43.358734
            ],
            [
              -73.8353016,
              43.3587991
            ],
            [
              -73.8352758,
              43.3588156
            ],
            [
              -73.8352594,
              43.3588418
            ],
            [
              -73.835185,
              43.358878
            ],
            [
              -73.8350891,
              43.3589246
            ],
            [
              -73.8350595,
              43.3589447
            ],
            [
              -73.8350575,
              43.3589594
            ],
            [
              -73.8350759,
              43.3589997
            ],
            [
              -73.8350683,
              43.3590097
            ],
            [
              -73.8350392,
              43.3590476
            ],
            [
              -73.8350408,
              43.3590671
            ],
            [
              -73.8350349,
              43.3591096
            ]
          ]
        ]
      }
    }
  ]
}
