{
  "type": "FeatureCollection",
  "properties": {
    "title": "Approximate powerline corridor gap",
    "disclaimer": "Visual orientation only. This polygon represents the known gap between the mapped parcels, not surveyed utility-corridor boundaries."
  },
  "features": [
    {
      "type": "Feature",
      "properties": {
        "name": "National Grid powerline cut",
        "ownership": "Not owned",
        "access": "Access is allowed",
        "accuracy": "Approximate visual gap between parcel polygons; not a mapped or surveyed corridor boundary."
      },
      "geometry": {
        "type": "Polygon",
        "coordinates": [
          [
            [-73.83520117, 43.36114129],
            [-73.83585240, 43.35984806],
            [-73.83635390, 43.35984806],
            [-73.83618607, 43.36018750],
            [-73.83609774, 43.36016401],
            [-73.83562233, 43.36108584],
            [-73.83520117, 43.36114129]
          ]
        ]
      }
    }
  ]
}
