{
  "type": "FeatureCollection",
  "properties": {
    "title": "Driveway"
  },
  "features": [
    {
      "type": "Feature",
      "properties": {
        "id": "driveway",
        "name": "Driveway",
        "type": "dirt road",
        "status": "provisional",
        "note": "Driveway centerline consolidated from four phone-GPS tracks recorded August 5 and August 10.",
        "source_files": [
          "Raw gaia gpx 8.5.26/driveway.gpx",
          "Raw gaia gpx 8.5.26/driveway (1).gpx",
          "Raw gaia gpx through 8.31.26/driveway.gpx",
          "Raw gaia gpx through 8.31.26/driveway (1).gpx"
        ],
        "source_track_count": 4,
        "recorded_on": "2026-08-10",
        "processing": "Arc-length median centerline from 4 equally weighted passes; directions normalized; 5 m stations. A matching vertex was inserted for join `main-loop-driveway`. A matching vertex was inserted for join `mountain-drive-driveway`.",
        "length_m": 142.9,
        "length_ft": 469,
        "elevation_gain_ft": 26,
        "elevation_loss_ft": 53,
        "elevation_profile_ft": [
          876.6,
          873.9,
          871.2,
          868.6,
          866.2,
          864.5,
          863.3,
          861.6,
          858.7,
          854.2,
          849.5,
          845.3,
          841.8,
          838.1,
          834.5,
          831.6,
          829.9
        ]
      },
      "geometry": {
        "type": "LineString",
        "coordinates": [
          [
            -73.8352496,
            43.358694
          ],
          [
            -73.8353417,
            43.3588397
          ],
          [
            -73.8354327,
            43.35894
          ],
          [
            -73.8354622,
            43.3589725
          ],
          [
            -73.8355528,
            43.3590293
          ],
          [
            -73.8356107,
            43.3591055
          ],
          [
            -73.8356539,
            43.3591309
          ],
          [
            -73.8358246,
            43.3591656
          ],
          [
            -73.8359341,
            43.3591458
          ],
          [
            -73.8359401,
            43.3591414
          ],
          [
            -73.8360176,
            43.3590848
          ],
          [
            -73.8362296,
            43.3587737
          ],
          [
            -73.8363273,
            43.3586932
          ]
        ]
      }
    }
  ]
}
