{
  "type": "FeatureCollection",
  "properties": {
    "title": "Dirt roads"
  },
  "features": [
    {
      "type": "Feature",
      "properties": {
        "id": "driveway",
        "name": "Driveway",
        "type": "dirt road",
        "status": "provisional",
        "note": "Driveway road centerline from two opposite-direction passes.",
        "source_files": [
          "driveway.gpx",
          "driveway (1).gpx"
        ],
        "recorded_on": "2026-08-05",
        "processing": "Arc-length median centerline from 2 equally weighted passes; directions normalized; 5 m stations. A matching vertex was inserted for join `main-loop-driveway`.",
        "length_m": 141.1,
        "length_ft": 463,
        "elevation_gain_ft": 25
      },
      "geometry": {
        "type": "LineString",
        "coordinates": [
          [
            -73.835256,
            43.358663
          ],
          [
            -73.8353216,
            43.3588026
          ],
          [
            -73.8354391,
            43.3589369
          ],
          [
            -73.835443,
            43.3589414
          ],
          [
            -73.8357439,
            43.3590867
          ],
          [
            -73.8359377,
            43.3591315
          ],
          [
            -73.8360187,
            43.3590946
          ],
          [
            -73.8362225,
            43.3587791
          ],
          [
            -73.836337,
            43.3586816
          ]
        ]
      }
    }
  ]
}
