{
  "type": "FeatureCollection",
  "properties": {
    "title": "Building landmarks"
  },
  "features": [
    {
      "type": "Feature",
      "properties": {
        "id": "home",
        "name": "Home",
        "type": "building",
        "status": "provisional",
        "recorded_on": "2026-08-04",
        "source_files": [
          "Home_point.gpx"
        ],
        "source_track_count": 1,
        "processing": "Position-weighted center: each occupied 2 m spatial cell counted once, preventing stationary dwell samples from dominating."
      },
      "geometry": {
        "type": "Point",
        "coordinates": [
          -73.8353908,
          43.3586019
        ]
      }
    },
    {
      "type": "Feature",
      "properties": {
        "id": "pavilion",
        "name": "Pavilion",
        "type": "building",
        "status": "provisional",
        "recorded_on": "2026-08-04",
        "source_files": [
          "Pavilion_point.gpx"
        ],
        "source_track_count": 1,
        "processing": "Position-weighted center: each occupied 2 m spatial cell counted once, preventing repeated samples from dominating."
      },
      "geometry": {
        "type": "Point",
        "coordinates": [
          -73.8353641,
          43.3592142
        ]
      }
    },
    {
      "type": "Feature",
      "properties": {
        "id": "cabin",
        "name": "Cabin",
        "type": "building",
        "status": "provisional",
        "note": "Approximate center derived from walked exterior and interior wall traces.",
        "source_files": [
          "Raw gaia gpx through 8.31.26/cabin-ext-point.gpx",
          "Raw gaia gpx through 8.31.26/cabin-int-point.gpx"
        ],
        "source_track_count": 2,
        "recorded_on": "2026-08-28",
        "processing": "Position-weighted center; each occupied 2 m cell counted once."
      },
      "geometry": {
        "type": "Point",
        "coordinates": [
          -73.8344019,
          43.3590717
        ]
      }
    },
    {
      "type": "Feature",
      "properties": {
        "id": "gravel-shed",
        "name": "Gravel Shed",
        "type": "building",
        "status": "provisional",
        "note": "Approximate center derived from the walked exterior.",
        "source_files": [
          "Raw gaia gpx through 8.31.26/gravel-shed-point-ext.gpx"
        ],
        "source_track_count": 1,
        "recorded_on": "2026-08-28",
        "processing": "Position-weighted center; each occupied 2 m cell counted once."
      },
      "geometry": {
        "type": "Point",
        "coordinates": [
          -73.835235,
          43.3590608
        ]
      }
    },
    {
      "type": "Feature",
      "properties": {
        "id": "mystery-shack",
        "name": "Mystery Shack",
        "type": "building",
        "status": "rough / provisional",
        "note": "Low-priority approximate center from a short exterior walk and entrance reading.",
        "source_files": [
          "Raw gaia gpx through 8.31.26/mystery-shack.gpx"
        ],
        "source_track_count": 1,
        "recorded_on": "2026-08-11",
        "processing": "Position-weighted center; each occupied 2 m cell counted once."
      },
      "geometry": {
        "type": "Point",
        "coordinates": [
          -73.8347687,
          43.3584486
        ]
      }
    },
    {
      "type": "Feature",
      "properties": {
        "id": "shed",
        "name": "Shed",
        "type": "building",
        "status": "provisional",
        "note": "Approximate center derived from the walked exterior after removing the final 10 seconds.",
        "source_files": [
          "Raw gaia gpx through 8.31.26/shed-ext-point-delete-last-10s.gpx"
        ],
        "source_track_count": 1,
        "recorded_on": "2026-08-28",
        "processing": "Position-weighted center; each occupied 2 m cell counted once."
      },
      "geometry": {
        "type": "Point",
        "coordinates": [
          -73.8353384,
          43.3591516
        ]
      }
    },
    {
      "type": "Feature",
      "properties": {
        "id": "wood-shed",
        "name": "Wood Shed",
        "type": "building",
        "status": "provisional",
        "note": "Approximate center derived from the walked exterior.",
        "source_files": [
          "Raw gaia gpx through 8.31.26/wood-shed-ext-point.gpx"
        ],
        "source_track_count": 1,
        "recorded_on": "2026-08-28",
        "processing": "Position-weighted center; each occupied 2 m cell counted once."
      },
      "geometry": {
        "type": "Point",
        "coordinates": [
          -73.8352539,
          43.3593147
        ]
      }
    }
  ]
}
