{
  "type": "FeatureCollection",
  "properties": {
    "title": "Landmarks"
  },
  "features": [
    {
      "type": "Feature",
      "properties": {
        "id": "the-barbershop",
        "name": "The Barbershop",
        "type": "landmark",
        "status": "provisional; derived from trail endpoint",
        "note": "Approximate landmark location, placed 5 m north of the current Barbershop Trail dead end.",
        "recorded_on": "2026-08-05"
      },
      "geometry": {
        "type": "Point",
        "coordinates": [
          -73.8338405,
          43.3595731
        ]
      }
    }
  ]
}
